[{"OBJECT_NAME":"STARLINK-30871","OBJECT_ID":"2023-170Y","EPOCH":"2026-03-09T15:59:14.734464","MEAN_MOTION":15.27573938,"ECCENTRICITY":0.00018496,"INCLINATION":43.001,"RA_OF_ASC_NODE":194.5306,"ARG_OF_PERICENTER":276.5002,"MEAN_ANOMALY":83.5639,"EPHEMERIS_TYPE":0,"CLASSIFICATION_TYPE":"U","NORAD_CAT_ID":58228,"ELEMENT_SET_NO":999,"REV_AT_EPOCH":13029,"BSTAR":1.0799953e-5,"MEAN_MOTION_DOT":3.5e-7,"MEAN_MOTION_DDOT":0},{"OBJECT_NAME":"ELECTRON KICK STAGE R\/B","OBJECT_ID":"2023-100H","EPOCH":"2026-03-09T16:45:37.763136","MEAN_MOTION":14.68103413,"ECCENTRICITY":0.03085221,"INCLINATION":99.3329,"RA_OF_ASC_NODE":332.428,"ARG_OF_PERICENTER":173.253,"MEAN_ANOMALY":187.2976,"EPHEMERIS_TYPE":0,"CLASSIFICATION_TYPE":"U","NORAD_CAT_ID":57393,"ELEMENT_SET_NO":999,"REV_AT_EPOCH":14066,"BSTAR":0.00057943845,"MEAN_MOTION_DOT":6.836e-5,"MEAN_MOTION_DDOT":0}]
